H1 CPF 01  gfz 2021 06 18 12  6692 tandemx   
H2 1003001  6202 36605    2021 06 18 12 59 42 2021 06 23 00 00 42   120 1 1  0 0 0
H9
10 0 59385   6462.000000  0     313094.016  -1348355.323  -6755118.691
10 0 59385   6582.000000  0    -126027.406  -2130056.454  -6556917.958
10 0 59385   6702.000000  0    -576253.565  -2867079.394  -6244329.420
10 0 59385   6822.000000  0   -1028884.801  -3546507.207  -5822735.731
10 0 59385   6942.000000  0   -1474949.989  -4156547.864  -5299411.056
10 0 59385   7062.000000  0   -1905380.039  -4686741.314  -4683407.814
10 0 59385   7182.000000  0   -2311189.384  -5128145.461  -3985411.577
10 0 59385   7302.000000  0   -2683661.625  -5473495.423  -3217565.198
10 0 59385   7422.000000  0   -3014534.891  -5717332.839  -2393265.020
10 0 59385   7542.000000  0   -3296183.446  -5856102.662  -1526931.630
10 0 59385   7662.000000  0   -3521791.309  -5888214.219   -633757.594
10 0 59385   7782.000000  0   -3685512.297  -5814063.051    270563.459
10 0 59385   7902.000000  0   -3782612.128  -5636012.640   1170119.554
10 0 59385   8022.000000  0   -3809589.280  -5358336.253   2049069.368
10 0 59385   8142.000000  0   -3764270.673  -4987119.246   2891930.569
10 0 59385   8262.000000  0   -3645880.037  -4530125.603   3683860.152
10 0 59385   8382.000000  0   -3455077.465  -3996632.317   4410921.951
10 0 59385   8502.000000  0   -3193969.061  -3397234.907   5060335.314
10 0 59385   8622.000000  0   -2866087.073  -2743630.038   5620699.294
10 0 59385   8742.000000  0   -2476340.980  -2048381.574   6082189.718
10 0 59385   8862.000000  0   -2030941.450  -1324675.184   6436727.212
10 0 59385   8982.000000  0   -1537297.819   -586064.323   6678114.791
10 0 59385   9102.000000  0   -1003890.884    153786.544   6802138.240
10 0 59385   9222.000000  0    -440127.058    881353.234   6806633.828
10 0 59385   9342.000000  0     143827.284   1583498.475   6691524.589
10 0 59385   9462.000000  0     737228.952   2247709.097   6458821.746
10 0 59385   9582.000000  0    1328955.219   2862318.944   6112591.012
10 0 59385   9702.000000  0    1907711.327   3416714.364   5658886.115
10 0 59385   9822.000000  0    2462245.747   3901520.960   5105649.411
10 0 59385   9942.000000  0    2981570.802   4308767.417   4462578.760
10 0 59385  10062.000000  0    3455182.303   4632021.308   3740961.334
10 0 59385  10182.000000  0    3873273.803   4866496.365   2953480.627
10 0 59385  10302.000000  0    4226945.762   5009130.318   2113993.685
10 0 59385  10422.000000  0    4508395.430   5058623.879   1237281.648
10 0 59385  10542.000000  0    4711088.758   5015447.216    338786.207
10 0 59385  10662.000000  0    4829909.501   4881810.200   -565672.398
10 0 59385  10782.000000  0    4861277.539   4661594.169  -1460182.966
10 0 59385  10902.000000  0    4803237.696   4360251.404  -2329030.465
10 0 59385  11022.000000  0    4655515.857   3984674.542  -3156978.680
10 0 59385  11142.000000  0    4419540.537   3543038.551  -3929541.688
10 0 59385  11262.000000  0    4098429.286   3044620.146  -4633237.775
10 0 59385  11382.000000  0    3696942.855   2499599.267  -5255821.155
10 0 59385  11502.000000  0    3221408.316   1918847.934  -5786488.543
10 0 59385  11622.000000  0    2679612.215   1313711.388  -6216057.189
10 0 59385  11742.000000  0    2080667.253    695786.396  -6537112.060
10 0 59385  11862.000000  0    1434856.585     76701.671  -6744121.517
10 0 59385  11982.000000  0     753458.511   -532096.570  -6833524.090
10 0 59385  12102.000000  0      48550.800  -1119552.133  -6803783.010
10 0 59385  12222.000000  0    -667198.354  -1675193.916  -6655407.978
10 0 59385  12342.000000  0   -1380751.833  -2189317.302  -6390948.316
10 0 59385  12462.000000  0   -2078935.794  -2653151.107  -6014954.296
10 0 59385  12582.000000  0   -2748677.342  -3059005.780  -5533906.734
10 0 59385  12702.000000  0   -3377246.063  -3400402.156  -4956117.394
10 0 59385  12822.000000  0   -3952496.861  -3672179.073  -4291597.079
10 0 59385  12942.000000  0   -4463107.120  -3870575.565  -3551892.343
10 0 59385  13062.000000  0   -4898804.423  -3993286.902  -2749893.775
10 0 59385  13182.000000  0   -5250579.753  -4039492.635  -1899616.592
10 0 59385  13302.000000  0   -5510880.206  -4009854.785  -1015957.167
10 0 59385  13422.000000  0   -5673776.469  -3906486.181   -114430.123
10 0 59385  13542.000000  0   -5735100.548  -3732889.197    789109.238
10 0 59385  13662.000000  0   -5692549.457  -3493866.223   1678752.562
10 0 59385  13782.000000  0   -5545750.110  -3195402.167   2538828.651
10 0 59385  13902.000000  0   -5296284.866  -2844523.294   3354187.761
10 0 59385  14022.000000  0   -4947677.901  -2449137.107   4110475.647
10 0 59385  14142.000000  0   -4505341.605  -2017855.298   4794391.444
10 0 59385  14262.000000  0   -3976485.375  -1559806.059   5393921.716
10 0 59385  14382.000000  0   -3369991.526  -1084441.349   5898549.137
10 0 59385  14502.000000  0   -2696259.498   -601341.488   6299434.544
10 0 59385  14622.000000  0   -1967020.037   -120020.922   6589566.956
10 0 59385  14742.000000  0   -1195125.243    350258.614   6763878.613
10 0 59385  14862.000000  0    -394320.147    800664.371   6819327.715
10 0 59385  14982.000000  0     421002.193   1222957.537   6754948.122
10 0 59385  15102.000000  0    1236058.624   1609643.708   6571865.288
10 0 59385  15222.000000  0    2035943.317   1954106.249   6273277.357
10 0 59385  15342.000000  0    2805899.550   2250719.577   5864402.709
10 0 59385  15462.000000  0    3531593.330   2494942.175   5352395.039
10 0 59385  15582.000000  0    4199383.778   2683387.293   4746223.763
10 0 59385  15702.000000  0    4796583.385   2813870.489   4056522.595
10 0 59385  15822.000000  0    5311707.053   2885432.947   3295408.820
10 0 59385  15942.000000  0    5734702.674   2898337.928   2476269.253
10 0 59385  16062.000000  0    6057153.105   2854041.712   1613523.911
10 0 59385  16182.000000  0    6272451.429   2755140.704    722367.915
10 0 59385  16302.000000  0    6375940.473   2605293.470   -181504.153
10 0 59385  16422.000000  0    6365012.346   2409119.841  -1082184.254
10 0 59385  16542.000000  0    6239165.647   2172080.253  -1963838.417
10 0 59385  16662.000000  0    6000023.626   1900340.899  -2810991.711
10 0 59385  16782.000000  0    5651308.309   1600624.507  -3608806.331
10 0 59385  16902.000000  0    5198773.089   1280051.911  -4343343.944
10 0 59385  17022.000000  0    4650094.979    945978.736  -5001807.703
10 0 59385  17142.000000  0    4014732.273    605832.651  -5572758.516
10 0 59385  17262.000000  0    3303751.942    266953.765  -6046304.916
10 0 59385  17382.000000  0    2529629.111    -63558.185  -6414264.169
10 0 59385  17502.000000  0    1706023.883   -378987.411  -6670291.637
10 0 59385  17622.000000  0     847541.187   -673133.731  -6809979.895
10 0 59385  17742.000000  0     -30526.018   -940430.402  -6830927.202
10 0 59385  17862.000000  0    -912463.716  -1176045.658  -6732772.678
10 0 59385  17982.000000  0   -1782410.735  -1375967.610  -6517202.438
10 0 59385  18102.000000  0   -2624637.946  -1537071.314  -6187923.741
10 0 59385  18222.000000  0   -3423825.950  -1657166.673  -5750607.140
10 0 59385  18342.000000  0   -4165340.144  -1735027.648  -5212800.538
10 0 59385  18462.000000  0   -4835500.684  -1770401.566  -4583810.661
10 0 59385  18582.000000  0   -5421839.177  -1763997.791  -3874553.030
10 0 59385  18702.000000  0   -5913338.893  -1717456.291  -3097372.717
10 0 59385  18822.000000  0   -6300652.637  -1633296.084  -2265835.964
10 0 59385  18942.000000  0   -6576292.119  -1514844.019  -1394496.484
10 0 59385  19062.000000  0   -6734784.279  -1366145.754   -498640.084
10 0 59385  19182.000000  0   -6772789.876  -1191860.303    405988.035
10 0 59385  19302.000000  0   -6689180.071   -997140.393   1303467.304
10 0 59385  19422.000000  0   -6485068.380   -787502.719   2177990.872
10 0 59385  19542.000000  0   -6163797.338   -568690.824   3014153.078
10 0 59385  19662.000000  0   -5730880.258   -346533.894   3797229.178
10 0 59385  19782.000000  0   -5193898.530   -126805.329   4513441.006
10 0 59385  19902.000000  0   -4562358.353     84914.438   5150201.456
10 0 59385  20022.000000  0   -3847512.889    283368.936   5696334.336
10 0 59385  20142.000000  0   -3062152.744    463746.819   6142268.042
10 0 59385  20262.000000  0   -2220368.526    621790.015   6480198.263
10 0 59385  20382.000000  0   -1337292.234    753887.262   6704219.159
10 0 59385  20502.000000  0    -428821.102    857152.034   6810420.257
10 0 59385  20622.000000  0     488669.093    929482.475   6796949.469
10 0 59385  20742.000000  0    1398618.205    969602.953   6664043.120
10 0 59385  20862.000000  0    2284579.544    977086.907   6414022.207
10 0 59385  20982.000000  0    3130516.448    952359.921   6051254.802
10 0 59385  21102.000000  0    3921094.487    896683.233   5582084.787
10 0 59385  21222.000000  0    4641962.402    812118.240   5014725.820
10 0 59385  21342.000000  0    5280017.891    701471.731   4359124.791
10 0 59385  21462.000000  0    5823655.384    568223.707   3626792.891
10 0 59385  21582.000000  0    6262987.488    416439.529   2830604.904
10 0 59385  21702.000000  0    6590033.697    250667.323   1984571.667
10 0 59385  21822.000000  0    6798875.088     75822.411   1103591.445
10 0 59385  21942.000000  0    6885768.613   -102936.447    203180.882
10 0 59385  22062.000000  0    6849218.336   -280337.563   -700806.280
10 0 59385  22182.000000  0    6690000.582   -451129.892  -1592467.902
10 0 59385  22302.000000  0    6411143.267   -610215.830  -2456141.588
10 0 59385  22422.000000  0    6017859.845   -752780.045  -3276686.073
10 0 59385  22542.000000  0    5517440.990   -874411.164  -4039750.062
10 0 59385  22662.000000  0    4919106.674   -971212.775  -4732023.093
10 0 59385  22782.000000  0    4233824.016  -1039901.157  -5341463.173
10 0 59385  22902.000000  0    3474095.992  -1077888.841  -5857499.131
99
